STARLINK-36247          
1 68245U 26054P   26096.24683467  .00178376  00000+0  88612-3 0  9994
2 68245  53.1578 174.4647 0000868  88.1953 271.9169 15.80936897  3133
STARLINK-37043          
1 68246U 26054Q   26096.24533184  .00292338  00000+0  14296-2 0  9996
2 68246  53.1578 174.4544 0000926 309.6267  50.4673 15.80955746  3138
STARLINK-37044          
1 68247U 26054R   26095.61315013  .00513495  00000+0  24103-2 0  9994
2 68247  53.1581 177.6228 0001719  35.1642 324.9495 15.81260472  3032
STARLINK-36997          
1 68248U 26054S   26096.21125742  .00179428  00000+0  11489-2 0  9997
2 68248  53.1589 174.9652 0001431  70.5063 289.6112 15.75260011  3128
STARLINK-37141          
1 68249U 26054T   26096.26107977  .00167060  00000+0  10693-2 0  9998
2 68249  53.1577 174.5592 0000912  98.3191 261.7932 15.75308553  3134
STARLINK-37087          
1 68250U 26054U   26096.20250678  .00184294  00000+0  11779-2 0  9995
2 68250  53.1576 174.9071 0001577  42.4827 317.6316 15.75286763  3129
STARLINK-36274          
1 68251U 26054V   26096.20705554  .00125033  00000+0  80794-3 0  9994
2 68251  53.1584 174.9372 0001142  97.4144 262.7006 15.75235242  3125
STARLINK-37085          
1 68252U 26054W   26096.24082777  .00209622  00000+0  10355-2 0  9996
2 68252  53.1580 174.4239 0001260 109.0254 251.0905 15.80967321  3138
STARLINK-37086          
1 68253U 26054X   26096.24008434  .00168218  00000+0  83737-3 0  9995
2 68253  53.1577 174.4193 0001130 102.8731 257.2418 15.80923297  3132
STARLINK-37084          
1 68254U 26054Y   26096.25002315 -.01917733  00000+0 -12578-1 0  9999
2 68254  53.1590 174.3572 0001064  73.8408 348.4155 15.78250416  4340
STARLINK-37075          
1 68255U 26054Z   26096.23933076  .00229735  00000+0  11361-2 0  9990
2 68255  53.1577 174.4140 0001516  13.8870 346.2194 15.80886671  3133
STARLINK-36333          
1 68256U 26054AA  26096.23783324  .00206424  00000+0  10225-2 0  9998
2 68256  53.1577 174.4043 0000880   2.7158 357.3869 15.80917607  3131
STARLINK-36745          
1 68257U 26054AB  26096.26141158  .00172546  00000+0  11040-2 0  9998
2 68257  53.1577 174.5600 0001392  52.4298 307.6848 15.75300848  3130
STARLINK-36890          
1 68258U 26054AC  26096.23558362  .00196031  00000+0  97420-3 0  9997
2 68258  53.1577 174.3888 0000996  86.5906 273.5230 15.80876195  3135
STARLINK-36323          
1 68259U 26054AD  26096.25002315  .00075711  00000+0  49416-3 0  9995
2 68259  53.1586 174.4023 0001105  98.0603 302.2796 15.75215340  4381
STARLINK-37056          
1 68260U 26054AE  26096.23483231  .00183802  00000+0  91319-3 0  9995
2 68260  53.1574 174.3834 0001434 100.8416 259.2768 15.80917769  3130
