[{"OBJECT_NAME":"STARLINK-36247","OBJECT_ID":"2026-054P","EPOCH":"2026-04-06T05:55:26.515488","MEAN_MOTION":15.80936897,"ECCENTRICITY":8.682e-5,"INCLINATION":53.1578,"RA_OF_ASC_NODE":174.4647,"ARG_OF_PERICENTER":88.1953,"MEAN_ANOMALY":271.9169,"EPHEMERIS_TYPE":0,"CLASSIFICATION_TYPE":"U","NORAD_CAT_ID":68245,"ELEMENT_SET_NO":999,"REV_AT_EPOCH":313,"BSTAR":0.00088611989,"MEAN_MOTION_DOT":0.00178376,"MEAN_MOTION_DDOT":0},{"OBJECT_NAME":"STARLINK-37043","OBJECT_ID":"2026-054Q","EPOCH":"2026-04-06T05:53:16.670976","MEAN_MOTION":15.80955746,"ECCENTRICITY":9.261e-5,"INCLINATION":53.1578,"RA_OF_ASC_NODE":174.4544,"ARG_OF_PERICENTER":309.6267,"MEAN_ANOMALY":50.4673,"EPHEMERIS_TYPE":0,"CLASSIFICATION_TYPE":"U","NORAD_CAT_ID":68246,"ELEMENT_SET_NO":999,"REV_AT_EPOCH":313,"BSTAR":0.0014296129,"MEAN_MOTION_DOT":0.00292338,"MEAN_MOTION_DDOT":0},{"OBJECT_NAME":"STARLINK-37044","OBJECT_ID":"2026-054R","EPOCH":"2026-04-05T14:42:56.171232","MEAN_MOTION":15.81260472,"ECCENTRICITY":0.0001719,"INCLINATION":53.1581,"RA_OF_ASC_NODE":177.6228,"ARG_OF_PERICENTER":35.1642,"MEAN_ANOMALY":324.9495,"EPHEMERIS_TYPE":0,"CLASSIFICATION_TYPE":"U","NORAD_CAT_ID":68247,"ELEMENT_SET_NO":999,"REV_AT_EPOCH":303,"BSTAR":0.0024103,"MEAN_MOTION_DOT":0.00513495,"MEAN_MOTION_DDOT":0},{"OBJECT_NAME":"STARLINK-36997","OBJECT_ID":"2026-054S","EPOCH":"2026-04-06T05:04:12.641088","MEAN_MOTION":15.75260011,"ECCENTRICITY":0.00014316,"INCLINATION":53.1589,"RA_OF_ASC_NODE":174.9652,"ARG_OF_PERICENTER":70.5063,"MEAN_ANOMALY":289.6112,"EPHEMERIS_TYPE":0,"CLASSIFICATION_TYPE":"U","NORAD_CAT_ID":68248,"ELEMENT_SET_NO":999,"REV_AT_EPOCH":312,"BSTAR":0.0011489388,"MEAN_MOTION_DOT":0.00179428,"MEAN_MOTION_DDOT":0},{"OBJECT_NAME":"STARLINK-37141","OBJECT_ID":"2026-054T","EPOCH":"2026-04-06T06:15:57.292128","MEAN_MOTION":15.75308553,"ECCENTRICITY":9.121e-5,"INCLINATION":53.1577,"RA_OF_ASC_NODE":174.5592,"ARG_OF_PERICENTER":98.3191,"MEAN_ANOMALY":261.7932,"EPHEMERIS_TYPE":0,"CLASSIFICATION_TYPE":"U","NORAD_CAT_ID":68249,"ELEMENT_SET_NO":999,"REV_AT_EPOCH":313,"BSTAR":0.001069339,"MEAN_MOTION_DOT":0.0016706,"MEAN_MOTION_DDOT":0},{"OBJECT_NAME":"STARLINK-37087","OBJECT_ID":"2026-054U","EPOCH":"2026-04-06T04:51:36.585792","MEAN_MOTION":15.75286763,"ECCENTRICITY":0.00015779,"INCLINATION":53.1576,"RA_OF_ASC_NODE":174.9071,"ARG_OF_PERICENTER":42.4827,"MEAN_ANOMALY":317.6316,"EPHEMERIS_TYPE":0,"CLASSIFICATION_TYPE":"U","NORAD_CAT_ID":68250,"ELEMENT_SET_NO":999,"REV_AT_EPOCH":312,"BSTAR":0.0011779247,"MEAN_MOTION_DOT":0.00184294,"MEAN_MOTION_DDOT":0},{"OBJECT_NAME":"STARLINK-36274","OBJECT_ID":"2026-054V","EPOCH":"2026-04-06T04:58:09.598656","MEAN_MOTION":15.75235242,"ECCENTRICITY":0.00011427,"INCLINATION":53.1584,"RA_OF_ASC_NODE":174.9372,"ARG_OF_PERICENTER":97.4144,"MEAN_ANOMALY":262.7006,"EPHEMERIS_TYPE":0,"CLASSIFICATION_TYPE":"U","NORAD_CAT_ID":68251,"ELEMENT_SET_NO":999,"REV_AT_EPOCH":312,"BSTAR":0.00080794359,"MEAN_MOTION_DOT":0.00125033,"MEAN_MOTION_DDOT":0},{"OBJECT_NAME":"STARLINK-37085","OBJECT_ID":"2026-054W","EPOCH":"2026-04-06T05:46:47.519328","MEAN_MOTION":15.80967321,"ECCENTRICITY":0.00012602,"INCLINATION":53.158,"RA_OF_ASC_NODE":174.4239,"ARG_OF_PERICENTER":109.0254,"MEAN_ANOMALY":251.0905,"EPHEMERIS_TYPE":0,"CLASSIFICATION_TYPE":"U","NORAD_CAT_ID":68252,"ELEMENT_SET_NO":999,"REV_AT_EPOCH":313,"BSTAR":0.0010355023,"MEAN_MOTION_DOT":0.00209622,"MEAN_MOTION_DDOT":0},{"OBJECT_NAME":"STARLINK-37086","OBJECT_ID":"2026-054X","EPOCH":"2026-04-06T05:45:43.286976","MEAN_MOTION":15.80923297,"ECCENTRICITY":0.00011308,"INCLINATION":53.1577,"RA_OF_ASC_NODE":174.4193,"ARG_OF_PERICENTER":102.8731,"MEAN_ANOMALY":257.2418,"EPHEMERIS_TYPE":0,"CLASSIFICATION_TYPE":"U","NORAD_CAT_ID":68253,"ELEMENT_SET_NO":999,"REV_AT_EPOCH":313,"BSTAR":0.00083737179,"MEAN_MOTION_DOT":0.00168218,"MEAN_MOTION_DDOT":0},{"OBJECT_NAME":"STARLINK-37084","OBJECT_ID":"2026-054Y","EPOCH":"2026-04-06T06:00:02.000160","MEAN_MOTION":15.78250416,"ECCENTRICITY":0.00010646,"INCLINATION":53.159,"RA_OF_ASC_NODE":174.3572,"ARG_OF_PERICENTER":73.8408,"MEAN_ANOMALY":348.4155,"EPHEMERIS_TYPE":0,"CLASSIFICATION_TYPE":"U","NORAD_CAT_ID":68254,"ELEMENT_SET_NO":999,"REV_AT_EPOCH":434,"BSTAR":-0.012578188,"MEAN_MOTION_DOT":-0.01917733,"MEAN_MOTION_DDOT":0},{"OBJECT_NAME":"STARLINK-37075","OBJECT_ID":"2026-054Z","EPOCH":"2026-04-06T05:44:38.177664","MEAN_MOTION":15.80886671,"ECCENTRICITY":0.00015166,"INCLINATION":53.1577,"RA_OF_ASC_NODE":174.414,"ARG_OF_PERICENTER":13.887,"MEAN_ANOMALY":346.2194,"EPHEMERIS_TYPE":0,"CLASSIFICATION_TYPE":"U","NORAD_CAT_ID":68255,"ELEMENT_SET_NO":999,"REV_AT_EPOCH":313,"BSTAR":0.0011360698,"MEAN_MOTION_DOT":0.00229735,"MEAN_MOTION_DDOT":0},{"OBJECT_NAME":"STARLINK-36333","OBJECT_ID":"2026-054AA","EPOCH":"2026-04-06T05:42:28.791936","MEAN_MOTION":15.80917607,"ECCENTRICITY":8.808e-5,"INCLINATION":53.1577,"RA_OF_ASC_NODE":174.4043,"ARG_OF_PERICENTER":2.7158,"MEAN_ANOMALY":357.3869,"EPHEMERIS_TYPE":0,"CLASSIFICATION_TYPE":"U","NORAD_CAT_ID":68256,"ELEMENT_SET_NO":999,"REV_AT_EPOCH":313,"BSTAR":0.0010224662,"MEAN_MOTION_DOT":0.00206424,"MEAN_MOTION_DDOT":0},{"OBJECT_NAME":"STARLINK-36745","OBJECT_ID":"2026-054AB","EPOCH":"2026-04-06T06:16:25.960512","MEAN_MOTION":15.75300848,"ECCENTRICITY":0.00013921,"INCLINATION":53.1577,"RA_OF_ASC_NODE":174.56,"ARG_OF_PERICENTER":52.4298,"MEAN_ANOMALY":307.6848,"EPHEMERIS_TYPE":0,"CLASSIFICATION_TYPE":"U","NORAD_CAT_ID":68257,"ELEMENT_SET_NO":999,"REV_AT_EPOCH":313,"BSTAR":0.0011039693,"MEAN_MOTION_DOT":0.00172546,"MEAN_MOTION_DDOT":0},{"OBJECT_NAME":"STARLINK-36890","OBJECT_ID":"2026-054AC","EPOCH":"2026-04-06T05:39:14.424768","MEAN_MOTION":15.80876195,"ECCENTRICITY":9.961e-5,"INCLINATION":53.1577,"RA_OF_ASC_NODE":174.3888,"ARG_OF_PERICENTER":86.5906,"MEAN_ANOMALY":273.523,"EPHEMERIS_TYPE":0,"CLASSIFICATION_TYPE":"U","NORAD_CAT_ID":68258,"ELEMENT_SET_NO":999,"REV_AT_EPOCH":313,"BSTAR":0.00097419931,"MEAN_MOTION_DOT":0.00196031,"MEAN_MOTION_DDOT":0},{"OBJECT_NAME":"STARLINK-36323","OBJECT_ID":"2026-054AD","EPOCH":"2026-04-06T06:00:02.000160","MEAN_MOTION":15.7521534,"ECCENTRICITY":0.00011055,"INCLINATION":53.1586,"RA_OF_ASC_NODE":174.4023,"ARG_OF_PERICENTER":98.0603,"MEAN_ANOMALY":302.2796,"EPHEMERIS_TYPE":0,"CLASSIFICATION_TYPE":"U","NORAD_CAT_ID":68259,"ELEMENT_SET_NO":999,"REV_AT_EPOCH":438,"BSTAR":0.00049416288,"MEAN_MOTION_DOT":0.00075711,"MEAN_MOTION_DDOT":0},{"OBJECT_NAME":"STARLINK-37056","OBJECT_ID":"2026-054AE","EPOCH":"2026-04-06T05:38:09.511584","MEAN_MOTION":15.80917769,"ECCENTRICITY":0.00014344,"INCLINATION":53.1574,"RA_OF_ASC_NODE":174.3834,"ARG_OF_PERICENTER":100.8416,"MEAN_ANOMALY":259.2768,"EPHEMERIS_TYPE":0,"CLASSIFICATION_TYPE":"U","NORAD_CAT_ID":68260,"ELEMENT_SET_NO":999,"REV_AT_EPOCH":313,"BSTAR":0.0009131934,"MEAN_MOTION_DOT":0.00183802,"MEAN_MOTION_DDOT":0}]
